SCD 1                   
1 22490U 93009B   22229.22853667  .00000324  00000+0  39322-4 0  9995
2 22490  24.9681 201.5025 0043196  97.7331  19.1945 14.44709796558757
TECHSAT 1B (GO-32)      
1 25397U 98043D   22228.44450569  .00000038  00000+0  36257-4 0  9990
2 25397  98.8211 179.0828 0000616 357.5504   2.5671 14.23765801251965
SCD 2                   
1 25504U 98060A   22228.92374326  .00000320  00000+0  39900-4 0  9990
2 25504  24.9965  58.4400 0017363 101.3408  44.8150 14.44221437257593
LANDSAT 7               
1 25682U 99020A   22229.29846057  .00000220  00000+0  55359-4 0  9995
2 25682  97.9750 275.0607 0001118  82.2199 277.9134 14.59785789241442
DLR-TUBSAT              
1 25757U 99029B   22229.41521401  .00000060  00000+0  26701-4 0  9995
2 25757  98.4901 172.5841 0013340 294.9846  64.9963 14.51511789230228
TERRA                   
1 25994U 99068A   22229.17552845  .00000244  00000+0  63951-4 0  9992
2 25994  98.1335 299.6933 0001622  89.4709 323.3319 14.57137820205468
MAROC-TUBSAT            
1 27004U 01056D   22229.01283363 -.00000024  00000+0  23508-4 0  9996
2 27004  99.6345   9.4171 0020438 135.0499 347.8194 13.70159294 34432
AQUA                    
1 27424U 02022A   22229.11848473  .00000408  00000+0  10008-3 0  9991
2 27424  98.2491 170.4429 0001971  70.1837 346.2947 14.57355828 79060
IRS-P6 (RESOURCESAT-1)  
1 28051U 03046A   22229.49911614  .00000080  00000+0  43048-4 0  9991
2 28051  98.4017 298.7790 0058272 195.0742 164.8710 14.34223276979771
SHIYAN 1 (SY-1)         
1 28220U 04012A   22229.49024273  .00001912  00000+0  15011-3 0  9992
2 28220  97.9786 223.3569 0012703 121.7577 238.4886 15.02143241999363
AURA                    
1 28376U 04026A   22228.85678325  .00000421  00000+0  10348-3 0  9993
2 28376  98.2109 171.3307 0001581  81.4402 278.6976 14.57114957962021
IRS-P5 (CARTOSAT-1)     
1 28649U 05017A   22228.42230623  .00000616  00000+0  79701-4 0  9990
2 28649  97.7147 286.8724 0002271  56.5142 303.6290 14.84228304935655
SINAH 1                 
1 28893U 05043D   22228.35721893  .00000172  00000+0  43784-4 0  9995
2 28893  98.1186 350.8422 0014833 350.1697   9.9212 14.61731810895703
EROS B                  
1 29079U 06014A   22229.46377645  .00009611  00000+0  38433-3 0  9997
2 29079  97.3901 349.3681 0005601  93.3306 333.3003 15.25292343905676
RESURS-DK 1             
1 29228U 06021A   22229.43409631  .00000959  00000+0  77691-4 0  9995
2 29228  69.9370 333.5925 0006579 304.9428  55.1114 15.03352398891572
ARIRANG-2 (KOMPSAT-2)   
1 29268U 06031A   22229.53659413  .00000295  00000+0  66909-4 0  9999
2 29268  97.8972  95.8272 0016467 174.1419 185.9997 14.62478111856827
LAPAN-TUBSAT            
1 29709U 07001A   22229.03049398  .00000299  00000+0  43825-4 0  9993
2 29709  97.9708 191.4910 0014039  61.6371 298.6254 14.82534874843484
CARTOSAT-2 (IRS-P7)     
1 29710U 07001B   22229.23744365  .00015650  00000+0  37843-3 0  9992
2 29710  97.8696 338.3063 0146709 203.5979 155.8486 15.30753173845531
HAIYANG-1B              
1 31113U 07010A   22229.06194990  .00000026  00000+0  26017-4 0  9999
2 31113  98.3174 251.5259 0014505  37.7285 322.4912 14.30328237801172
COSMO-SKYMED 1          
1 31598U 07023A   22229.49886029  .00000358  00000+0  51525-4 0  9998
2 31598  97.8892  52.2834 0001575  94.9586 265.1807 14.82162927822007
TERRASAR-X              
1 31698U 07026A   22228.96925122 -.00000092  00000+0 -11900-5 0  9992
2 31698  97.4462 235.7106 0001514  61.6401 327.1311 15.19150174841302
WORLDVIEW-1 (WV-1)      
1 32060U 07041A   22228.79939708  .00003911  00000+0  16280-3 0  9994
2 32060  97.3914 347.3651 0004823 280.6741  79.3953 15.24325730829580
YAOGAN 3                
1 32289U 07055A   22229.52832045  .00000718  00000+0  98394-4 0  9999
2 32289  97.9458 250.9434 0001268  81.8900 278.2459 14.81476423798087
COSMO-SKYMED 2          
1 32376U 07059A   22229.53262792  .00000162  00000+0  26899-4 0  9991
2 32376  97.8892  52.3161 0001603  97.5593 262.5848 14.82159922794752
RADARSAT-2              
1 32382U 07061A   22229.43714639  .00000080  00000+0  48002-4 0  9991
2 32382  98.5764 235.4863 0001273  92.7224  41.5817 14.29985194766017
CARTOSAT-2A             
1 32783U 08021A   22229.52534940  .00000196  00000+0  33808-4 0  9994
2 32783  97.9606 289.1266 0011979 336.2072  23.8603 14.78646753772049
HUANJING 1A (HJ-1A)     
1 33320U 08041A   22229.49149663  .00000315  00000+0  50445-4 0  9993
2 33320  97.6743 259.6789 0022026  36.7532 323.5185 14.77891616751407
HUANJING 1B (HJ-1B)     
1 33321U 08041B   22229.50909542  .00000734  00000+0  10798-3 0  9997
2 33321  97.6914 263.3836 0035601  53.1534 307.2936 14.77826009751408
GEOEYE 1                
1 33331U 08042A   22229.51047886  .00000228  00000+0  51997-4 0  9999
2 33331  98.1087 303.6118 0010235  85.4717 274.7663 14.64555848745307
THEOS                   
1 33396U 08049A   22229.44987477  .00000145  00000+0  88884-4 0  9991
2 33396  98.7443 296.4947 0001329  99.1342 316.7300 14.20006576719328
COSMO-SKYMED 3          
1 33412U 08054A   22229.53874117 -.00000170  00000+0 -11016-4 0  9995
2 33412  97.8899  53.3600 0016008 276.0755  83.8701 14.91873246747289
YAOGAN 4                
1 33446U 08061A   22229.40015818  .00000442  00000+0  69008-4 0  9995
2 33446  97.8183 167.6823 0014929 299.8959  60.0768 14.77434611738594
GOSAT (IBUKI)           
1 33492U 09002A   22229.23478347  .00000394  00000+0  78022-4 0  9995
2 33492  98.1204 341.3976 0001648  93.5496 266.5897 14.67521796726595
YAOGAN 6                
1 34839U 09021A   22229.49353088  .00004224  00000+0  14640-3 0  9995
2 34839  97.0868 206.8305 0027915  80.2708 280.1684 15.29970947740586
DEIMOS-1                
1 35681U 09041A   22229.50376776  .00000241  00000+0  45624-4 0  9996
2 35681  97.7092  77.4295 0002651  55.5212 304.6243 14.72090375700756
DUBAISAT-1              
1 35682U 09041B   22229.39258806  .00000497  00000+0  92160-4 0  9997
2 35682  97.8107  19.9547 0010345 234.4544 125.5666 14.69251316699230
OCEANSAT-2              
1 35931U 09051A   22229.48074526 -.00045684  00000+0 -15936-1 0  9992
2 35931  98.3005 322.1102 0001903 304.0046  56.0955 14.35632567682973
WORLDVIEW-2 (WV-2)      
1 35946U 09055A   22229.52087407  .00000095  00000+0  46305-4 0  9991
2 35946  98.4840 303.8928 0001669 136.8886 223.2438 14.37656657674682
SMOS                    
1 36036U 09059A   22229.11848304  .00000151  00000+0  62174-4 0  9997
2 36036  98.4445  55.7604 0001225  84.0107 276.1221 14.39771225672132
YAOGAN 7                
1 36110U 09069A   22229.51869783  .00000865  00000+0  13555-3 0  9999
2 36110  98.1948  90.0080 0024598 209.9760 150.0181 14.75166849683149
TANDEM-X                
1 36605U 10030A   22229.63488226 -.00000494  00000+0 -20359-4 0  9991
2 36605  97.4464 236.3680 0001735  86.0189 340.6958 15.19145137674157
CARTOSAT-2B             
1 36795U 10035A   22229.49540255 -.00003250  00000+0 -43624-3 0  9993
2 36795  97.9550 289.2003 0014787  47.7437 312.5115 14.78625215653081
YAOGAN 10               
1 36834U 10038A   22229.46879422  .00000340  00000+0  50404-4 0  9998
2 36834  97.9758 240.0059 0001356  77.1131 283.0239 14.81320204649816
COSMO-SKYMED 4          
1 37216U 10060A   22229.47778515  .00000363  00000+0  52174-4 0  9991
2 37216  97.8889  52.2625 0001462  82.6008 277.5354 14.82162321637299
RESOURCESAT-2           
1 37387U 11015A   22229.50139466  .00000084  00000+0  57909-4 0  9992
2 37387  98.6599 300.8704 0003123 248.1764 111.9083 14.21653658587834
HAIYANG-2A              
1 37781U 11043A   22229.46813942 -.00000016  00000+0  26965-4 0  9998
2 37781  99.3181 234.2650 0001606  72.3045 287.8282 13.78743824554047
RASAT                   
1 37791U 11044D   22229.49905135  .00000217  00000+0  49340-4 0  9993
2 37791  98.0969 321.5465 0020712 299.9533  59.9619 14.65052671588050
MEGHA-TROPIQUES         
1 37838U 11058A   22228.78226244  .00000341  00000+0  35136-4 0  9994
2 37838  19.9788 282.8353 0042813 225.5041 134.1859 14.16657559559639
SRMSAT                  
1 37841U 11058D   22228.75665602  .00000349  00000+0  46768-4 0  9991
2 37841  19.9710 250.4089 0011655 287.0328 231.2020 14.10765811559764
YAOGAN 13               
1 37941U 11072A   22229.18138846  .00004420  00000+0  19816-3 0  9998
2 37941  97.6355 180.1745 0002406 134.5800 350.4149 15.21762639594039
PLEIADES 1A             
1 38012U 11076F   22229.50428160  .00000166  00000+0  45485-4 0  9994
2 38012  98.1977 303.6580 0001334  95.6046 264.5307 14.58571241567972
ZIYUAN 1-02C (ZY 1-02C) 
1 38038U 11079A   22229.49596487  .00000159  00000+0  70952-4 0  9990
2 38038  98.5854 293.8277 0008018  84.5050 275.7053 14.35324855558243
ZIYUAN 3-1 (ZY 3-1)     
1 38046U 12001A   22229.39902957  .00003432  00000+0  15576-3 0  9994
2 38046  97.3372 298.7976 0001430 178.5034 243.2044 15.21462609588879
ARIRANG-3 (KOMPSAT-3)   
1 38338U 12025B   22229.49895336  .00000246  00000+0  58584-4 0  9994
2 38338  98.1819 168.9942 0010522 176.4487 183.6783 14.61897175546896
KANOPUS-V 1             
1 38707U 12039A   22229.26157115  .00004079  00000+0  17886-3 0  9997
2 38707  97.4677 150.9534 0001794  91.0026  62.6014 15.22545564558649
EXACTVIEW-1 (ADS-1B)    
1 38709U 12039C   22229.18990031  .00000040  00000+0  37666-4 0  9995
2 38709  99.0056 297.1711 0010096 241.0940 118.9225 14.24114219523380
SPOT 6                  
1 38755U 12047A   22229.03878079  .00000149  00000+0  42050-4 0  9999
2 38755  98.2311 295.0989 0001152  77.2560 282.8767 14.58540293528985
PLEIADES 1B             
1 39019U 12068A   22229.47001529  .00000170  00000+0  46366-4 0  9990
2 39019  98.1930 303.5788 0001389  84.3561 275.7799 14.58559515516822
GOKTURK 2               
1 39030U 12073A   22229.51082303  .00000241  00000+0  45128-4 0  9997
2 39030  97.8470 106.5149 0001993 108.8769 251.2652 14.72901006518343
